ASIASAT 7               
1 37933U 11069A   17345.93859736 -.00000340  00000-0  00000-0 0  9990
2 37933   0.0161 325.8810 0001570 281.1999 277.1566  1.00273126 13688
